[Satellite]
VERSION=1.1
NAME=GLOBALSTAR M029
NICKNAME=GLOBALSTAR M029
TLE1=1 25963U 99062C   17186.08807275 -.00000062  00000-0  29675-3 0  9992
TLE2=2 25963  51.9821  33.6082 0002699 148.1478   2.6362 11.99827859820563
